[{"OBJECT_NAME":"STARLINK-32033","OBJECT_ID":"2024-120K","EPOCH":"2026-03-09T22:04:03.070272","MEAN_MOTION":15.30190362,"ECCENTRICITY":0.00010489,"INCLINATION":53.1591,"RA_OF_ASC_NODE":318.6983,"ARG_OF_PERICENTER":67.531,"MEAN_ANOMALY":292.5802,"EPHEMERIS_TYPE":0,"CLASSIFICATION_TYPE":"U","NORAD_CAT_ID":60144,"ELEMENT_SET_NO":999,"REV_AT_EPOCH":9641,"BSTAR":8.1486337e-5,"MEAN_MOTION_DOT":2.054e-5,"MEAN_MOTION_DDOT":0},{"OBJECT_NAME":"OBJECT P","OBJECT_ID":"2018-099P","EPOCH":"2026-03-09T16:35:55.790016","MEAN_MOTION":15.30834106,"ECCENTRICITY":0.00076856,"INCLINATION":97.4366,"RA_OF_ASC_NODE":131.9195,"ARG_OF_PERICENTER":276.7627,"MEAN_ANOMALY":83.2739,"EPHEMERIS_TYPE":0,"CLASSIFICATION_TYPE":"U","NORAD_CAT_ID":43771,"ELEMENT_SET_NO":999,"REV_AT_EPOCH":39830,"BSTAR":0.00063632878,"MEAN_MOTION_DOT":0.00018926,"MEAN_MOTION_DDOT":0}]
